{
  "norad_id": 57776,
  "name": "STARLINK-30360",
  "history": [
    {
      "epoch": "2026-03-28T17:13:57.084384Z",
      "apogee_km": 484.14933439397464,
      "perigee_km": 481.95924213476155,
      "latitude_deg": 2.6720053194861268e-05,
      "longitude_deg": 2.6875264422137626,
      "height_km": 482.72975828515206,
      "semi_major_axis_km": 6861.191288264368,
      "eccentricity": 0.0001596,
      "inclination_deg": 43.0078,
      "raan_deg": 87.3098,
      "arg_perigee_deg": 275.3587,
      "mean_anomaly_deg": 84.7083,
      "mean_motion_rev_day": 15.27578266
    }
  ]
}